{"type": "FeatureCollection", "features": [ {"type": "Feature", "properties": {"norad_id": 34077, "name": "IRIDIUM 33 DEB", "group": "iridium-33-debris", "lat": 42.61333958795782, "lon": -128.50505402422777, "alt_km": 672.6852715310388, "timestamp": "2025-12-05T04:52:15.675556+00:00", "meta": {"OBJECT_NAME": "IRIDIUM 33 DEB", "OBJECT_ID": "1997-051CL", "EPOCH": "2025-12-04T17:18:42.892128", "MEAN_MOTION": 14.64636283, "ECCENTRICITY": 0.001086, "INCLINATION": 86.3874, "RA_OF_ASC_NODE": 55.0389, "ARG_OF_PERICENTER": 64.6167, "MEAN_ANOMALY": 54.6109, "EPHEMERIS_TYPE": 0, "CLASSIFICATION_TYPE": "U", "NORAD_CAT_ID": 34077, "ELEMENT_SET_NO": 999, "REV_AT_EPOCH": 88215, "BSTAR": 0.0042105, "MEAN_MOTION_DOT": 0.00022464, "MEAN_MOTION_DDOT": 0}, "tle": {"line1": "1 34077U 97051CL  25338.72132977  .00022464  00000+0  42105-2 0  9993", "line2": "2 34077  86.3874  55.0389 0010860  64.6167  54.6109 14.64636283882156"}}, "geometry": {"type": "Point", "coordinates": [-128.50505402422777, 42.61333958795782]}}, {"type": "Feature", "properties": {"norad_id": 34079, "name": "IRIDIUM 33 DEB", "group": "iridium-33-debris", "lat": -15.915615630433953, "lon": 11.054515107652191, "alt_km": 620.9066363173615, "timestamp": "2025-12-05T04:52:15.675565+00:00", "meta": {"OBJECT_NAME": "IRIDIUM 33 DEB", "OBJECT_ID": "1997-051CN", "EPOCH": "2025-12-04T14:55:55.555392", "MEAN_MOTION": 14.83206685, "ECCENTRICITY": 0.0006547, "INCLINATION": 86.3776, "RA_OF_ASC_NODE": 12.3535, "ARG_OF_PERICENTER": 33.0784, "MEAN_ANOMALY": 92.0163, "EPHEMERIS_TYPE": 0, "CLASSIFICATION_TYPE": "U", "NORAD_CAT_ID": 34079, "ELEMENT_SET_NO": 999, "REV_AT_EPOCH": 88857, "BSTAR": 0.0036896, "MEAN_MOTION_DOT": 0.00030258, "MEAN_MOTION_DDOT": 0}, "tle": {"line1": "1 34079U 97051CN  25338.62217078  .00030258  00000+0  36896-2 0  9990", "line2": "2 34079  86.3776  12.3535 0006547  33.0784  92.0163 14.83206685888578"}}, "geometry": {"type": "Point", "coordinates": [11.054515107652191, -15.915615630433953]}}, {"type": "Feature", "properties": {"norad_id": 34088, "name": "IRIDIUM 33 DEB", "group": "iridium-33-debris", "lat": -46.185718093324574, "lon": -142.03672802955754, "alt_km": 598.8429190688794, "timestamp": "2025-12-05T04:52:15.675574+00:00", "meta": {"OBJECT_NAME": "IRIDIUM 33 DEB", "OBJECT_ID": "1997-051CX", "EPOCH": "2025-12-04T13:54:56.791872", "MEAN_MOTION": 14.90765151, "ECCENTRICITY": 0.0005164, "INCLINATION": 86.3855, "RA_OF_ASC_NODE": 34.4716, "ARG_OF_PERICENTER": 207.2916, "MEAN_ANOMALY": 276.8284, "EPHEMERIS_TYPE": 0, "CLASSIFICATION_TYPE": "U", "NORAD_CAT_ID": 34088, "ELEMENT_SET_NO": 999, "REV_AT_EPOCH": 88620, "BSTAR": 0.0061025, "MEAN_MOTION_DOT": 0.00060443, "MEAN_MOTION_DDOT": 0}, "tle": {"line1": "1 34088U 97051CX  25338.57982398  .00060443  00000+0  61025-2 0  9999", "line2": "2 34088  86.3855  34.4716 0005164 207.2916 276.8284 14.90765151886208"}}, "geometry": {"type": "Point", "coordinates": [-142.03672802955754, -46.185718093324574]}}, {"type": "Feature", "properties": {"norad_id": 34091, "name": "IRIDIUM 33 DEB", "group": "iridium-33-debris", "lat": -44.70804174139179, "lon": 66.65341168938595, "alt_km": 610.1676387248172, "timestamp": "2025-12-05T04:52:15.675584+00:00", "meta": {"OBJECT_NAME": "IRIDIUM 33 DEB", "OBJECT_ID": "1997-051DA", "EPOCH": "2025-12-04T12:51:17.264736", "MEAN_MOTION": 14.80833294, "ECCENTRICITY": 0.0032938, "INCLINATION": 86.3424, "RA_OF_ASC_NODE": 70.5888, "ARG_OF_PERICENTER": 322.9542, "MEAN_ANOMALY": 36.9405, "EPHEMERIS_TYPE": 0, "CLASSIFICATION_TYPE": "U", "NORAD_CAT_ID": 34091, "ELEMENT_SET_NO": 999, "REV_AT_EPOCH": 87745, "BSTAR": 0.012051, "MEAN_MOTION_DOT": 0.00095005, "MEAN_MOTION_DDOT": 0}, "tle": {"line1": "1 34091U 97051DA  25338.53561649  .00095005  00000+0  12051-1 0  9997", "line2": "2 34091  86.3424  70.5888 0032938 322.9542  36.9405 14.80833294877454"}}, "geometry": {"type": "Point", "coordinates": [66.65341168938595, -44.70804174139179]}}, {"type": "Feature", "properties": {"norad_id": 34097, "name": "IRIDIUM 33 DEB", "group": "iridium-33-debris", "lat": 27.027158668733808, "lon": 6.677454696819122, "alt_km": 715.3331417578866, "timestamp": "2025-12-05T04:52:15.675594+00:00", "meta": {"OBJECT_NAME": "IRIDIUM 33 DEB", "OBJECT_ID": "1997-051DG", "EPOCH": "2025-12-04T12:00:30.087072", "MEAN_MOTION": 14.34680478, "ECCENTRICITY": 0.008354, "INCLINATION": 86.2003, "RA_OF_ASC_NODE": 5.0446, "ARG_OF_PERICENTER": 28.9801, "MEAN_ANOMALY": 331.5995, "EPHEMERIS_TYPE": 0, "CLASSIFICATION_TYPE": "U", "NORAD_CAT_ID": 34097, "ELEMENT_SET_NO": 999, "REV_AT_EPOCH": 87001, "BSTAR": 0.0028898, "MEAN_MOTION_DOT": 8.526e-05, "MEAN_MOTION_DDOT": 0}, "tle": {"line1": "1 34097U 97051DG  25338.50034823  .00008526  00000+0  28898-2 0  9998", "line2": "2 34097  86.2003   5.0446 0083540  28.9801 331.5995 14.34680478870017"}}, "geometry": {"type": "Point", "coordinates": [6.677454696819122, 27.027158668733808]}}, {"type": "Feature", "properties": {"norad_id": 34145, "name": "IRIDIUM 33 DEB", "group": "iridium-33-debris", "lat": 85.42565021095344, "lon": 99.95919203475134, "alt_km": 707.9702353988368, "timestamp": "2025-12-05T04:52:15.675603+00:00", "meta": {"OBJECT_NAME": "IRIDIUM 33 DEB", "OBJECT_ID": "1997-051DY", "EPOCH": "2025-12-04T05:07:56.080128", "MEAN_MOTION": 14.42196317, "ECCENTRICITY": 0.005535, "INCLINATION": 86.211, "RA_OF_ASC_NODE": 336.324, "ARG_OF_PERICENTER": 120.9354, "MEAN_ANOMALY": 239.7303, "EPHEMERIS_TYPE": 0, "CLASSIFICATION_TYPE": "U", "NORAD_CAT_ID": 34145, "ELEMENT_SET_NO": 999, "REV_AT_EPOCH": 87515, "BSTAR": 0.0021467, "MEAN_MOTION_DOT": 7.221e-05, "MEAN_MOTION_DDOT": 0}, "tle": {"line1": "1 34145U 97051DY  25338.21384352  .00007221  00000+0  21467-2 0  9991", "line2": "2 34145  86.2110 336.3240 0055350 120.9354 239.7303 14.42196317875151"}}, "geometry": {"type": "Point", "coordinates": [99.95919203475134, 85.42565021095344]}}, {"type": "Feature", "properties": {"norad_id": 34146, "name": "IRIDIUM 33 DEB", "group": "iridium-33-debris", "lat": -85.47595522955545, "lon": -131.63169917957063, "alt_km": 719.6158837990406, "timestamp": "2025-12-05T04:52:15.675612+00:00", "meta": {"OBJECT_NAME": "IRIDIUM 33 DEB", "OBJECT_ID": "1997-051DZ", "EPOCH": "2025-12-04T13:18:05.700096", "MEAN_MOTION": 14.48959771, "ECCENTRICITY": 0.0025021, "INCLINATION": 86.2833, "RA_OF_ASC_NODE": 353.417, "ARG_OF_PERICENTER": 250.9245, "MEAN_ANOMALY": 234.6299, "EPHEMERIS_TYPE": 0, "CLASSIFICATION_TYPE": "U", "NORAD_CAT_ID": 34146, "ELEMENT_SET_NO": 999, "REV_AT_EPOCH": 87988, "BSTAR": 0.0021466, "MEAN_MOTION_DOT": 8.185e-05, "MEAN_MOTION_DDOT": 0}, "tle": {"line1": "1 34146U 97051DZ  25338.55423264  .00008185  00000+0  21466-2 0  9994", "line2": "2 34146  86.2833 353.4170 0025021 250.9245 234.6299 14.48959771879880"}}, "geometry": {"type": "Point", "coordinates": [-131.63169917957063, -85.47595522955545]}}, {"type": "Feature", "properties": {"norad_id": 34159, "name": "IRIDIUM 33 DEB", "group": "iridium-33-debris", "lat": -85.4162037768314, "lon": -75.8161024392144, "alt_km": 758.2077815298117, "timestamp": "2025-12-05T04:52:15.675622+00:00", "meta": {"OBJECT_NAME": "IRIDIUM 33 DEB", "OBJECT_ID": "1997-051EN", "EPOCH": "2025-12-04T15:56:37.730112", "MEAN_MOTION": 14.38463354, "ECCENTRICITY": 0.0026377, "INCLINATION": 86.3518, "RA_OF_ASC_NODE": 51.6842, "ARG_OF_PERICENTER": 316.2134, "MEAN_ANOMALY": 43.6972, "EPHEMERIS_TYPE": 0, "CLASSIFICATION_TYPE": "U", "NORAD_CAT_ID": 34159, "ELEMENT_SET_NO": 999, "REV_AT_EPOCH": 87843, "BSTAR": 0.00077286, "MEAN_MOTION_DOT": 2.387e-05, "MEAN_MOTION_DDOT": 0}, "tle": {"line1": "1 34159U 97051EN  25338.66432558  .00002387  00000+0  77286-3 0  9996", "line2": "2 34159  86.3518  51.6842 0026377 316.2134  43.6972 14.38463354878438"}}, "geometry": {"type": "Point", "coordinates": [-75.8161024392144, -85.4162037768314]}}, {"type": "Feature", "properties": {"norad_id": 34350, "name": "IRIDIUM 33 DEB", "group": "iridium-33-debris", "lat": 70.39499060377257, "lon": 175.69110763262051, "alt_km": 723.956793209345, "timestamp": "2025-12-05T04:52:15.675631+00:00", "meta": {"OBJECT_NAME": "IRIDIUM 33 DEB", "OBJECT_ID": "1997-051ES", "EPOCH": "2025-12-04T01:54:53.906976", "MEAN_MOTION": 14.45357099, "ECCENTRICITY": 0.00219337, "INCLINATION": 86.3281, "RA_OF_ASC_NODE": 6.5649, "ARG_OF_PERICENTER": 162.4763, "MEAN_ANOMALY": 226.5026, "EPHEMERIS_TYPE": 0, "CLASSIFICATION_TYPE": "U", "NORAD_CAT_ID": 34350, "ELEMENT_SET_NO": 999, "REV_AT_EPOCH": 88168, "BSTAR": 0.00057236591, "MEAN_MOTION_DOT": 2.036e-05, "MEAN_MOTION_DDOT": 0}, "tle": {"line1": "1 34350U 97051ES  25338.07979059  .00002036  00000+0  57237-3 0  9991", "line2": "2 34350  86.3281   6.5649 0021933 162.4763 226.5026 14.45357099881683"}}, "geometry": {"type": "Point", "coordinates": [175.69110763262051, 70.39499060377257]}}, {"type": "Feature", "properties": {"norad_id": 34366, "name": "IRIDIUM 33 DEB", "group": "iridium-33-debris", "lat": -23.75379964322543, "lon": -125.8086592405535, "alt_km": 706.454679236338, "timestamp": "2025-12-05T04:52:15.675640+00:00", "meta": {"OBJECT_NAME": "IRIDIUM 33 DEB", "OBJECT_ID": "1997-051FJ", "EPOCH": "2025-12-04T16:58:06.750048", "MEAN_MOTION": 14.53943221, "ECCENTRICITY": 0.0021835, "INCLINATION": 86.3708, "RA_OF_ASC_NODE": 52.8063, "ARG_OF_PERICENTER": 165.4652, "MEAN_ANOMALY": 323.8941, "EPHEMERIS_TYPE": 0, "CLASSIFICATION_TYPE": "U", "NORAD_CAT_ID": 34366, "ELEMENT_SET_NO": 999, "REV_AT_EPOCH": 88065, "BSTAR": 0.0028769, "MEAN_MOTION_DOT": 0.00012178, "MEAN_MOTION_DDOT": 0}, "tle": {"line1": "1 34366U 97051FJ  25338.70702257  .00012178  00000+0  28769-2 0  9997", "line2": "2 34366  86.3708  52.8063 0021835 165.4652 323.8941 14.53943221880659"}}, "geometry": {"type": "Point", "coordinates": [-125.8086592405535, -23.75379964322543]}}]}